"","park_area_id","facility__Name","facility__Location","facility__Zip","ADDRESS_Ext","lon","lat","district"
"1","X179","Playground 52 LII","Kelly St bet. Av St John and Leggett Av","10455","Playground 52 LII,New York, NY,10455",-73.9017293,40.8149202,"Bronx"
"2","B247","Breukelen Ballfields","Louisiana Ave., Stanley Ave., Flatlands Ave., Williams Ave.","11207","Breukelen Ballfields,New York, NY,11207",-73.8914313,40.6509784,"Brooklyn"
"3","Q377","Playground Sixty Two LXII","Yellowstone Bl bet. 62 Av and 62 Rd","11375","Playground Sixty Two LXII,New York, NY,11375",-73.8524117,40.7361665,"Queens"
"4","B018","Canarsie Park","Belt Pkwy, Seaview Ave Btw: Paerdegat Basin, E 93 S, E 102 St, Fresh Creek Basin","11236, 11239","Canarsie Park,New York, NY,11236, 11239",-73.8953492,40.6276987,"Brooklyn"
"5","X039","Pelham Bay Park","Bruckner Blvd, Eastchester, Hutchinson","10461, 10464, 10464, 10465, 10469, 10475, 10803","Pelham Bay Park,New York, NY,10461, 10464, 10464, 10465, 10469, 10475, 10803",-73.8207104,40.8493296,"Bronx"
"6","M029","Fort Tryon Park","Riverside Dr To Broadway, W 192 St To Dyckman St","10040","Fort Tryon Park,New York, NY,10040",-73.9312995,40.8625608,"Manhattan"
"7","Q357B01","Barrier Playground","Horace Harding Exwy. Sr. Rd. S., 62 Ave. bet. 102 St. and Yellowstone Blvd.","11375","Barrier Playground,New York, NY,11375",-73.8548628,40.7362906,"Queens"
"8","M144","John V. Lindsay East River Park","Montgomery St. To E. 12 St., FDR Drive","10002","John V. Lindsay East River Park,New York, NY,10002",-73.974383,40.7189217,"Manhattan"
"9","X092","Van Cortlandt Park","Broadway, Jerome Ave,City Line,Van Cortlandt Pk S","10467, 10470, 10471, 10705, 10705","Van Cortlandt Park,New York, NY,10467, 10470, 10471, 10705, 10705",-73.8852842,40.8964243,"Bronx"
"10","X255","Bill Rainey Park","Beck St bet. Interval Av and Longwood Av","10459","Bill Rainey Park,New York, NY,10459",-73.8974393,40.8188659,"Bronx"
"11","Q162J","Beach 17 Playground","Seagirt Blvd bet. B. 17 St. and B. 12 St.","11691","Beach 17 Playground,New York, NY,11691",-73.7503498,40.5943811,"Queens"
"12","Q126","Francis Lewis Park","3 Ave. bet. Parsons Blvd and 147 St.","11357","Francis Lewis Park,New York, NY,11357",-73.824516,40.7965619,"Queens"
"13","M017","Corlears Hook Park","Jackson St, Cherry St, FDR Drive","10002","Corlears Hook Park,New York, NY,10002",-73.9797222,40.7116667,"Manhattan"
"14","M037","Highbridge Park","W 155 St and Dyckman St, Edgecombe Av & Amsterdam Av","10032, 10033, 10039, 10040, 10452","Highbridge Park,New York, NY,10032, 10033, 10039, 10040, 10452",-73.9257492,40.8537599,"Manhattan"
"15","Q021","Cunningham Park","Horace Harding Expwy, Grand Central Pkwy","11364, 11423, 11427","Cunningham Park,New York, NY,11364, 11423, 11427",-73.7742339,40.7291208,"Queens"
"16","X034","Mullaly Park","Jerome Av to River Av bet. E 164 St and McClellan St at Cromwell Ave","10452","Mullaly Park,New York, NY,10452",-73.9245925,40.8328628,"Bronx"
"17","Q010A","Little Bay Park","Cross Island Pkwy. bet. Utopia Pkwy. and Totten Ave.","11359, 11360","Little Bay Park,New York, NY,11359, 11360",-73.7889647,40.7897211,"Queens"
"18","M028","Fort Washington Park","Riverside Dr., Hudson River, W. 155 St. to Dyckman St.","10032, 10033, 10034","Fort Washington Park,New York, NY,10032, 10033, 10034",-73.9452115,40.8506713,"Manhattan"
"19","Q131","Frank Principe Park","Maurice Ave., 63 St. bet. 54 Ave. and Borden Ave.","11378","Frank Principe Park,New York, NY,11378",-73.9050185,40.7275735,"Queens"
"20","X002","Bronx Park","Southern Blvd,Webster,Burke Aves,Bronx Pk E,180 St","10458, 10460, 10462, 10467","Bronx Park,New York, NY,10458, 10460, 10462, 10467",-73.8691728,40.8536802,"Bronx"
"21","R005","Clove Lakes Park","Forest Ave., Victory Blvd., bet. Clove Rd. and Brookside Ave., Royal Oak Rd.","10301, 10310","Clove Lakes Park,New York, NY,10301, 10310",-74.1116452,40.6186027,"Staten Island"
"22","X232","Burns Playground","Mace Ave. bet. Lodovick Ave. and Gunther Ave.","10469","Burns Playground,New York, NY,10469",-73.8365765,40.8632649,"Bronx"
"23","X156","Eastchester Playground","Adee Ave. at Tenboeck Ave.","10469","Eastchester Playground,New York, NY,10469",-73.8528009,40.8696721,"Bronx"
"24","X172","Allerton Playground","Allerton Ave. bet. Throop Ave. and Bouck Ave.","10469","Allerton Playground,New York, NY,10469",-73.8505506,40.8660735,"Bronx"
"25","X157","Mazzei Playground","Mace Ave. bet. Pauldings Ave. and Williamsbridge Rd.","10469","Mazzei Playground,New York, NY,10469",-73.8582626,40.8626762,"Bronx"
"26","Q099","Flushing Meadows Corona Park","Grand Central Pkwy, Van Wyck Exwy","11354, 11355, 11367, 11368","Flushing Meadows Corona Park,New York, NY,11354, 11355, 11367, 11368",-73.8406953,40.7400275,"Queens"
"27","X003","Pelham Parkway","Bronx Park, Hutch. River Pkwy. bet. Pelham Pkwy North and South","10458, 10460, 10461, 10462, 10467, 10469","Pelham Parkway,New York, NY,10458, 10460, 10461, 10462, 10467, 10469",-73.8435544,40.8577307,"Bronx"
"28","X162","Parkside Playground","Arnow Ave. bet. Olinville Ave. and White Plains Rd.","10467","Parkside Playground,New York, NY,10467",-73.8679831,40.8684572,"Bronx"
"29","X087","Zimmerman Playground","Britton St. bet. Olinville Ave. and Barker Ave.","10467","Zimmerman Playground,New York, NY,10467",-73.8687372,40.866178,"Bronx"
"30","B329","Lindower Park","Strickland Ave. between Mill Ave. and E. 60 Pl.","11234","Lindower Park,New York, NY,11234",-73.9113651,40.6123076,"Brooklyn"
"31","M206","Tanahey Playground","Cherry St. To Water St., W. Catherine Slip To Market Slip","10002","Tanahey Playground,New York, NY,10002",-73.9958962,40.7100213,"Manhattan"
"32","M042","Inwood Hill Park","Dyckman St, Hudson River, Harlem River S","10033, 10034","Inwood Hill Park,New York, NY,10033, 10034",-73.9255549,40.8722007,"Manhattan"
"33","X026","Hines Park","Fulton Av to Franklin Av bet. E 167 St and E 166 St","10456","Hines Park,New York, NY,10456",-73.9056246,40.828584,"Bronx"
"34","M011","Chelsea Park","9 Av To 10 Av, W 27 St To W 28 St","10001","Chelsea Park,New York, NY,10001",-74.0011837,40.7501121,"Manhattan"
"35","X011","Crotona Parkway Malls","Crotona Pkwy bet. Bronx Park South and E 175 St","10460","Crotona Parkway Malls,New York, NY,10460",-73.8851831,40.8438043,"Bronx"
"36","X010A","Tremont Park","E 175 St to E Tremont Av bet. 3 Av and Arthur Ave","10457","Tremont Park,New York, NY,10457",-73.8952338,40.8452505,"Bronx"
"37","X042","Rose Hill Park","Webster Ave. bet. E. Fordham Rd. and E.","10458","Rose Hill Park,New York, NY,10458",-73.890278,40.8622831,"Bronx"
"38","Q219","Rockaway Freeway","Rockaway Frwy. bet. Beach 108 St. and Regina Ave., Beach Channel Dr.","11691, 11692, 11693, 11694","Rockaway Freeway,New York, NY,11691, 11692, 11693, 11694",-73.8042323,40.5904784,"Queens"
"39","Q391","Joseph Austin Playground","164 Pl. bet. Grand Central Pkwy. Sr. Rd. S. and 84 Ave.","11432","Joseph Austin Playground,New York, NY,11432",-73.8011017,40.715846,"Queens"
"40","Q001","Alley Pond Park","Little Neck Bay to Springfield Blvd, Union Tpke","11361, 11362, 11363, 11364, 11426","Alley Pond Park,New York, NY,11361, 11362, 11363, 11364, 11426",-73.7384341,40.7423947,"Queens"
"41","Q356","Alley Park","67 Ave. bet. 230 St. and 233 St.","11364","Alley Park,New York, NY,11364",-73.7536695,40.7469886,"Queens"
"42","Q360N","Hoffman Park","Hoffman Dr. bet. 58 Ave. and Woodhaven Blvd.","11373","Hoffman Park,New York, NY,11373",-73.8722287,40.7326774,"Queens"
"43","X045","St. Mary's Park","St Mary's St bet. St Ann's Av and Jackson Av","10454, 10455","St. Mary's Park,New York, NY,10454, 10455",-73.9120243,40.8117387,"Bronx"
"44","X216","Abigail Playground","E 156 St bet. Tinton Av and Union Av","10455","Abigail Playground,New York, NY,10455",-73.9048429,40.8173278,"Bronx"
"45","X131","Lozada Playground","E 135 St bet. Alexander Av and Willis Av","10454","Lozada Playground,New York, NY,10454",-73.9250105,40.8078469,"Bronx"
"46","Q360J","Crowley Playground","Queens Midtown Exwy., 57 Ave. bet. 84 St. and 82 St.","11373","Crowley Playground,New York, NY,11373",-73.8798079,40.7294242,"Queens"
"47","Q024","Kissena Park","Underhill, Oak, Rose, Booth Memorial Aves, Kissena Blvd, Fresh Meadow Ln","11365","Kissena Park,New York, NY,11365",-73.8076036,40.7461191,"Queens"
"48","Q413","Rochdale Park","Guy R. Brewer Blvd. bet. 130 Ave. and 137 Ave.","11434","Rochdale Park,New York, NY,11434",-73.7740842,40.6744603,"Queens"
"49","B100","Seth Low Playground/ Bealin Square","W. 12 St. bet. Bay Pkwy. and Ave. P","11204","Seth Low Playground/ Bealin Square,New York, NY,11204",-73.9876335,40.607501,"Brooklyn"
"50","Q031","Lawrence Virgilio Playground","52 St., Woodside Ave. bet. 39 Rd. and 39 Dr.","11377","Lawrence Virgilio Playground,New York, NY,11377",-73.9110028,40.74755,"Queens"
"51","M045","John Jay Park","FDR Dr., E 76 St. To E 78 St.","10021","John Jay Park,New York, NY,10021",-73.9493916,40.7693053,"Manhattan"
"52","B051","Kelly Park Playground","Ave. S bet. E. 14 St. and E. 15 St.","11229","Kelly Park Playground,New York, NY,11229",-73.9575138,40.6040622,"Brooklyn"
"53","B157","Kelly Park Playground","Ave. S, Morre Pl. bet. E. 16 St. and E. 17 St.","11229","Kelly Park Playground,New York, NY,11229",-73.9575138,40.6040622,"Brooklyn"
"54","B109","Bill Brown Playground","Ave. Y, Ave. X bet. E. 24 St. and Bedford Ave.","11235","Bill Brown Playground,New York, NY,11235",-73.9457178,40.5922828,"Brooklyn"
"55","Q220G","Hoover - Manton Playgrounds","Manton St. bet. 83 Ave., 134 St. and Main St.","11435","Hoover - Manton Playgrounds,New York, NY,11435",-73.8216889,40.7120075,"Queens"
"56","Q002","Grover Cleveland Playground","Stanhope St. bet. Fairvier Ave. and Grandview Ave.","11385","Grover Cleveland Playground,New York, NY,11385",-73.9111313,40.7108402,"Queens"
"57","M098","Washington Square Park","5 Ave, Waverly Pl., W. 4 St. and Macdougal St.","10011","Washington Square Park,New York, NY,10011",-73.997332,40.7308838,"Manhattan"
"58","M237","Corporal John A. Seravalli Playground","Hudson St. bet. Gansevoort St. and Horatio St.","10014","Corporal John A. Seravalli Playground,New York, NY,10014",-74.0048786,40.7390874,"Manhattan"
"59","Q302","Evergreen Park","St Felix Ave. bet. Seneca Ave. and 60 Pl.","11385","Evergreen Park,New York, NY,11385",-73.8967115,40.6976039,"Queens"
"60","Q306","The Painter's Playground","Alderton St. bet. Dieterle Cr. and Ellwell Cr.","11374","The Painter's Playground,New York, NY,11374",-73.8601003,40.720444,"Queens"
"61","B008","Betsy Head Park","Livonia,Dumont,Hopkinson,Blake Aves, Strauss St","11212","Betsy Head Park,New York, NY,11212",-73.9134108,40.6624365,"Brooklyn"
"62","Q023","Rufus King Park","Jamaica Ave., 89 Ave. bet. 150 St. and 153 St.","11432","Rufus King Park,New York, NY,11432",-73.8039529,40.7036801,"Queens"
"63","Q052","Captain Tilly Park","Highland Ave., 85 Ave. bet. 165 St. and Chapin Pkwy.","11432","Captain Tilly Park,New York, NY,11432",-73.798995,40.7122695,"Queens"
"64","Q212","Queens Valley Playground","137 St. bet. 76 Ave. and 76 Rd.","11367","Queens Valley Playground,New York, NY,11367",-73.8238026,40.721806,"Queens"
"65","X113","Hunts Point Playground","Spofford Av bet. Faile St and Hunts Point Av","10474","Hunts Point Playground,New York, NY,10474",-73.8858262,40.8142264,"Bronx"
"66","B057","Marine Park","Flatbush, Gerritsen & Fillmore Aves, Jamaica Bay","11229, 11234, 11235","Marine Park,New York, NY,11229, 11234, 11235",-73.9348698,40.6055157,"Brooklyn"
"67","B150","Kolbert Playground","Ave. L bet. E. 17 St. and E. 18 St.","11230","Kolbert Playground,New York, NY,11230",-73.9580425,40.6201299,"Brooklyn"
"68","M200","Booker T. Washington Playground","W. 107 St. to W. 108 St., Columbus Ave. and Amsterdam Ave.","10025","Booker T. Washington Playground,New York, NY,10025",-73.9637367,40.8009054,"Manhattan"
"69","X147A","Starlight Park","Sheridan Exwy. bet. E. 174 St., E. 172 St. and Jennings St.","10459, 10472","Starlight Park,New York, NY,10459, 10472",-73.882316,40.8335881,"Bronx"
"70","Q305","Mafera Park","65 Pl. bet. Shaler Ave. and the rail yards","11385","Mafera Park,New York, NY,11385",-73.8911796,40.7070267,"Queens"
"71","Q102","Juniper Valley Park","Juniper Blvd. bet. Lutheran Ave., 71 St. and Dry Harbor Rd.","11379","Juniper Valley Park,New York, NY,11379",-73.8796412,40.720497,"Queens"
"72","Q051","St. Albans Park","169 St., Merrick Blvd., Marne Pl. bet. Linden Blvd., Sayres Ave., and 111 Rd.","11433","St. Albans Park,New York, NY,11433",-73.7790416,40.6929106,"Queens"
"73","Q047","Queens Village Veterans Plaza","Springfield Blvd. bet. Jamaica Ave. and Amboy La.","11429","Queens Village Veterans Plaza,New York, NY,11429",-73.735847,40.7180284,"Queens"
"74","Q108","Laurelton Playground","Brookville Blvd. bet. 136 Ave. 137 Ave.","11422","Laurelton Playground,New York, NY,11422",-73.7360316,40.6705609,"Queens"
"75","Q008","Brookville Park","S. Conduit Ave., 149 Ave. bet. 232 St. and 235 St.","11413, 11422","Brookville Park,New York, NY,11413, 11422",-73.7429353,40.6628935,"Queens"
"76","Q009","Hermon A. MacNeil Park","Poppenhusen Ave. bet. 115 St. and College Pl.","11356","Hermon A. MacNeil Park,New York, NY,11356",-73.8521593,40.7926994,"Queens"
"77","Q015","Forest Park","Myrtle Ave, Union Tpke, Park Lane S","11375, 11385, 11415, 11421","Forest Park,New York, NY,11375, 11385, 11415, 11421",-73.8459102,40.7040764,"Queens"
"78","Q096B","Southern Fields","N Conduit Av-Belt Pkwy bet. 114 and 117 Sts","11420","Southern Fields,New York, NY,11420",-73.8263445,40.6655997,"Queens"
"79","Q094","Tudor Park","N. Conduit Ave., 133 Ave. bet. 80 St. and 88 St.","11417","Tudor Park,New York, NY,11417",-73.8546947,40.67341,"Queens"
"80","Q319","Annadale Playground","Yellowstone Blvd. bet. 64 Rd. and 65 Ave.","11375","Annadale Playground,New York, NY,11375",-73.8516467,40.7312764,"Queens"
"81","Q428","Horace Harding Playground","62 Dr. bet. 97 Pl. and 98 St.","11374","Horace Harding Playground,New York, NY,11374",-73.86064,40.7332909,"Queens"
"82","Q294","Utopia Playground","73 Ave., Jewel Ave. bet. Utopia Pkwy. and 179 St.","11365","Utopia Playground,New York, NY,11365",-73.7930214,40.7306812,"Queens"
"83","B372","Friends Field","Ave. L, E. 4 St., Mcdonald Ave., Ave. M","11230","Friends Field,New York, NY,11230",-73.9728811,40.6185597,"Brooklyn"
"84","Q330","Locust Manor Playground","121 Ave. bet. Lucas St. and 192 St.","11413","Locust Manor Playground,New York, NY,11413",-73.756318,40.6862949,"Queens"
"85","Q020","Highland Park","Highland Blvd, Jamaica Ave, Jackie Robinson Pkwy","11207, 11208, 11385","Highland Park,New York, NY,11207, 11208, 11385",-73.8862997,40.6887278,"Queens"
"86","Q119","Frederick B. Judge Playground","134 St., 135 St., bet. 111 Ave. and Lincoln St., Linden Blvd","11420","Frederick B. Judge Playground,New York, NY,11420",-73.808185,40.6834879,"Queens"
"87","Q396","Montbellier Park","Springfield Blvd., Sloan St. bet. 139 Ave. and Eastgate Plaza","11413","Montbellier Park,New York, NY,11413",-73.7556448,40.6793574,"Queens"
"88","Q005","Baisley Pond Park","N. Conduit Ave., 116 Ave. bet. 150 St., Suptin Blvd., and Baisley Blvd. S.","11434","Baisley Pond Park,New York, NY,11434",-73.786025,40.6737751,"Queens"
"89","Q127","Marconi Park","157 St., 155 St. bet. 108 Ave. and 109 Ave.","11433","Marconi Park,New York, NY,11433",-73.7952864,40.693712,"Queens"
"90","M107","Wards Island Park","East River and Hell Gate","10035","Wards Island Park,New York, NY,10035",-73.9265694,40.7893536,"Manhattan"
"91","B358","De Hostos Playground","Harrison Ave. between Walton St. and Lorimer St.","11206","De Hostos Playground,New York, NY,11206",-73.9493594,40.7026397,"Brooklyn"
"92","B022","Middleton Playground","Lynch St., Middleton St. bet. Lee Ave. and Bedford Ave.","11206","Middleton Playground,New York, NY,11206",-73.955298,40.700685,"Brooklyn"
"93","M077","St. Nicholas Park","St. Nicholas Ave., St. Nicholas Ter. bet. W. 128 St. and W. 141 St.","10027, 10031","St. Nicholas Park,New York, NY,10027, 10031",-73.9487476,40.8174689,"Manhattan"
"94","Q025","Major Mark Park","Hillside Ave. bet. 173 St. and 175 St.","11432","Major Mark Park,New York, NY,11432",-73.7884925,40.7117224,"Queens"
"95","Q293","Saul Weprin Playground","56 Ave. bet. 201 St. and 202 St.","11364","Saul Weprin Playground,New York, NY,11364",-73.7761652,40.7476176,"Queens"
"96","Q448","Roy Wilkins Recreation Center","Merrick Blvd. bet. 115 Ave., 116 Ave., and Baisley Blvd.","11434","Roy Wilkins Recreation Center,New York, NY,11434",-73.7694259,40.6870379,"Queens"
"97","Q107","Springfield Park","149 Av, Springfield Bl, 145 Rd, 184 St","11413","Springfield Park,New York, NY,11413",-73.7612001,40.6629975,"Queens"
"98","Q300A","Kissena Corridor Park","Peck & Underhill Aves, Utopia Pkwy, Horace Harding","11365, 11366","Kissena Corridor Park,New York, NY,11365, 11366",-73.7935648,40.746404,"Queens"
"99","Q007","Bayswater Park","Dwight Ave., Seagirt Blvd. bet. Beach 38 St. and Bay 32 St.","11691","Bayswater Park,New York, NY,11691",-73.7691138,40.599056,"Queens"
"100","M089","Union Square Park","Broadway To 4 Ave., E 14 St. To E 17 St.","10003","Union Square Park,New York, NY,10003",-73.9910835,40.7358633,"Manhattan"
"101","B028","Dyker Beach Park","86 St., Belt Pkwy. bet. Bay 8 St., 14 Ave., and 7 Ave.","11209, 11228","Dyker Beach Park,New York, NY,11209, 11228",-74.019405,40.605625,"Brooklyn"
"102","X175","Riverbend Playground","Bailey Ave. bet. W. Kingsbrodge Rd. and W. 193 St.","10463, 10468","Riverbend Playground,New York, NY,10463, 10468",-73.9059453,40.8718815,"Bronx"
"103","Q103","Kennedy Playground","32 Ave., 33 Ave. bet. Corporal Kennedy St. and 210 St.","11361","Kennedy Playground,New York, NY,11361",-73.7793967,40.7716618,"Queens"
"104","M105","Sara D. Roosevelt Park","E. Houston St. To Canal St. bet. Chrystie St. and Forsyth St.","10002","Sara D. Roosevelt Park,New York, NY,10002",-73.9915425,40.7217408,"Manhattan"
"105","X029","Lyons Square Playground","Aldus St to Bruckner Blvd bet. Bryant Av and Longfellow Av","10459","Lyons Square Playground,New York, NY,10459",-73.8880312,40.822866,"Bronx"
"106","Q162I01",NA,NA,NA,"NA,New York, NY,NA",-74.0081611,40.732343,"Queens"
"107","Q004","Astoria Park","19 St. bet. Astoria Park S. and Ditmars Blvd.","11105","Astoria Park,New York, NY,11105",-73.9228336,40.7785364,"Queens"
"108","R022","Silver Lake Park","Victory Blvd., Clove Rd., Forest Ave.","10301","Silver Lake Park,New York, NY,10301",-74.0916944,40.6245495,"Staten Island"
"109","Q163","Rockaway Beach Boardwalk","Shore Front Pkwy. bet. Beach 109 St. and B. 73 St.","11692, 11693, 11694","Rockaway Beach Boardwalk,New York, NY,11692, 11693, 11694",-73.8094671,40.5849517,"Queens"
"110","B026","Cuyler Gore Park","Carlton Ave., Fulton St., Green Ave.","11238","Cuyler Gore Park,New York, NY,11238",-73.971945,40.685725,"Brooklyn"
"111","Q471","Hunter's Point South Park","Center Blvd. bet. 50 Ave. and 2 St.","11101","Hunter's Point South Park,New York, NY,11101",-73.9606831,40.7422936,"Queens"
"112","M208D","Harlem River Park","E. 128 St., 2 Ave., 3 Ave., Harlem River Drive","10035","Harlem River Park,New York, NY,10035",-73.9335143,40.8058366,"Manhattan"
"113","Q044","L/CPL Thomas P. Noonan Jr. Playground","47 Ave., Greenpoint Ave. bet. 42 St. and 43 St.","11104","L/CPL Thomas P. Noonan Jr. Playground,New York, NY,11104",-73.9225823,40.7412558,"Queens"
"114","X044","St. James Park","Jerome Ave., E. 193 St., Creston Ave., E","10468","St. James Park,New York, NY,10468",-73.8977778,40.865,"Bronx"
"115","M223","Jacob H. Schiff Playground","Amsterdam Ave. bet. W. 136 St. and W. 138 St.","10031","Jacob H. Schiff Playground,New York, NY,10031",-73.9519586,40.8208184,"Manhattan"
"116","Q300","Kissena Corridor Park","Lawrence St,N Hempstead Tpk,Elder Ave,Kissena Blvd","11355","Kissena Corridor Park,New York, NY,11355",-73.8205452,40.7472926,"Queens"
"117","Q086","Flushing Fields","149 St. bet. 25 Ave. and 26 Ave., 29 Ave. and Bayside Ave.","11354","Flushing Fields,New York, NY,11354",-73.8166725,40.7745559,"Queens"
"118","Q392","Idlewild Park","149 Ave., Rockaway Blvd., Jamaica Bay bet. James Brown Pl. and Brookville Blvd.","11413, 11422","Idlewild Park,New York, NY,11413, 11422",-73.7570786,40.6546138,"Queens"
"119","Q220E","Playground One Forty","Van Wyck Exwy. Sr. Rd. E., 140 St. bet. 120 Ave. and Rockaway Blvd.","11436","Playground One Forty,New York, NY,11436",-73.800827,40.6750106,"Queens"
"120","Q207","MacDonald Park","Queens Blvd. bet. Yellowstone Blvd. and 70 Rd.","11375","MacDonald Park,New York, NY,11375",-73.8474399,40.7224445,"Queens"
"121","Q162","Rockaway Beach and Boardwalk","Lands underwater bet. B. 2 St. and B. 73 St.","11691, 11692","Rockaway Beach and Boardwalk,New York, NY,11691, 11692",-73.7898321,40.588503,"Queens"
"122","Q397","Auburndale Playground","171 St., 172 St. bet. 33 Ave. and 35 Ave.","11358","Auburndale Playground,New York, NY,11358",-73.7942711,40.7658125,"Queens"
"123","X136","Harris Park","Paul Ave. - Goulden Ave. bet. Bedford Par","10468","Harris Park,New York, NY,10468",-73.8919615,40.8763638,"Bronx"
"124","X040","Poe Park","Grand Concourse bet. E. 192 St. and E. K","10458","Poe Park,New York, NY,10458",-73.8945473,40.8648137,"Bronx"
"125","M125C","West 4th Street Courts","Ave. Of Americas, W. 3 St. and W. 4 St.","10012","West 4th Street Courts,New York, NY,10012",-74.0009436,40.731376,"Manhattan"
"126","Q092","Police Officer Edward Byrne Park","N. Conduit Ave., 135 Ave. bet. 130 Pl. and 134 St.","11420","Police Officer Edward Byrne Park,New York, NY,11420",-73.807361,40.667336,"Queens"
"127","Q133A","Hempstead Ballfield","Hempstead Ave. bet. Cross Is. Pkwy. and 225 St.","11429","Hempstead Ballfield,New York, NY,11429",-73.7286786,40.7107972,"Queens"
"128","M058","Marcus Garvey Park","Madison Ave, E. 120 St. to E. 124 St.","10027","Marcus Garvey Park,New York, NY,10027",-73.9437629,40.8044257,"Manhattan"
"129","B214","Linden Park","Vermont St. bet. Linden Blvd. and Stanley Ave.","11207","Linden Park,New York, NY,11207",-73.8871125,40.6589543,"Brooklyn"
"130","Q012B","John Golden Park","215 Pl., Cross Island Pkwy. bet. 31 Rd. and 33 Ave.","11360, 11361","John Golden Park,New York, NY,11360, 11361",-73.767643,40.7742982,"Queens"
"131","B367","Livonia Park","Livonia Ave. between Powell St. and Junius St.","11212","Livonia Park,New York, NY,11212",-73.9019951,40.664018,"Brooklyn"
"132","B129","Kaiser Park","Neptune Ave., Bayview Ave.,W. 24 St. to W. 32 St.","11224","Kaiser Park,New York, NY,11224",-73.9956557,40.5790202,"Brooklyn"
"133","M076","St. Vartan Park","1 Ave.,2 Ave., bet. E. 35 St. and E. 36 St.","10016","St. Vartan Park,New York, NY,10016",-73.9736293,40.7451124,"Manhattan"
"134","M391","East River Waterfront Esplanade","FDR Drive bet. Broad St. and Clinton St.-Pier 36","10002, 10004, 10038","East River Waterfront Esplanade,New York, NY,10002, 10004, 10038",-73.9625438,40.7621183,"Manhattan"
"135","B016","Maria Hernandez Park","Irving Ave., Kinickerbocker Ave. bet. Starr St. and Suydam St.","11237","Maria Hernandez Park,New York, NY,11237",-73.9238611,40.7031282,"Brooklyn"
"136","Q162E","Beach 59th St Playground","Rockaway Boardwalk bet. B. 60 St. and B. 59 St.","11692","Beach 59th St Playground,New York, NY,11692",-73.7890806,40.5891417,"Queens"
"137","M035","Colonel Charles Young Triangle","7 Ave., Macombs Pl., At W. 153 St.","10039","Colonel Charles Young Triangle,New York, NY,10039",-73.9357984,40.8272148,"Manhattan"
"138","M022","De Witt Clinton Park","W. 52 St. To W. 54 St., 11 Ave. To 12 Ave.","10019","De Witt Clinton Park,New York, NY,10019",-73.9942897,40.7680708,"Manhattan"
"139","R030","Willowbrook Park","Richmond Ave., Victory Blvd., Ashworth Ave., and Forest Hill Rd.","10314","Willowbrook Park,New York, NY,10314",-74.1581129,40.6005621,"Staten Island"
"140","Q414","Rocket Playground","N Conduit Ave. and 149 Ave.bet. Whitelaw St. and Lafayette St.","11417","Rocket Playground,New York, NY,11417",-73.8461872,40.6706222,"Queens"
"141","Q476","College Point Fields","130 St. bet., 23rd Ave. and 26 Ave.","11354, 11356","College Point Fields,New York, NY,11354, 11356",-73.8376269,40.777747,"Queens"
"142","Q205A","Big Bush Playground","Laurel Hill Blvd. bet. 61 St. and 64 St.","11377","Big Bush Playground,New York, NY,11377",-73.9027167,40.7394722,"Queens"
"143","XZ189",NA,NA,NA,"NA,New York, NY,NA",-74.0081611,40.732343,"Bronx"
"144","Q437","Murray Hill Playground","Murray St. bet. Barclay Ave. and Sanford Ave.","11355","Murray Hill Playground,New York, NY,11355",-73.8118785,40.7616241,"Queens"
"145","M353","Riverside Park South","12 Ave., Riverside Blvd. bet. W. 59 St. and W. 72 St.","10019, 10023","Riverside Park South,New York, NY,10019, 10023",-73.9895416,40.7772489,"Manhattan"
"146","R038A","Midland Field","Midland Ave., Mason Ave., Bedford Ave., Boundary Ave.","10306","Midland Field,New York, NY,10306",-74.098669,40.5762928,"Staten Island"
"147","M104","Randall's Island Park","East River and Harlem River","10035","Randall's Island Park,New York, NY,10035",-73.922517,40.795813,"Manhattan"
"148","R019","Veterans Park","Heberton Ave., Park Ave., Bennett St., Vreeland St.","10302","Veterans Park,New York, NY,10302",-74.1317793,40.6371956,"Staten Island"
"149","R065","Richmond Parkway","Staten Island Exwy. To West Shore Exwy.","10301, 10304, 10306, 10309, 10312, 10314","Richmond Parkway,New York, NY,10301, 10304, 10306, 10309, 10312, 10314",-74.1159211,40.5938984,"Staten Island"
"150","Q089B","Harvey Park","144 St., Whitestone Exwy. bet. 15 Ave. and 20 Ave.","11357","Harvey Park,New York, NY,11357",-73.8232856,40.7836138,"Queens"
"151","B141","City Line Park","Atlantic Ave. bet. Fountain Ave. and N. Conduit Ave.","11208","City Line Park,New York, NY,11208",-73.8742921,40.6790718,"Brooklyn"
"152","B169","Coney Island Beach & Boardwalk","Corbin Pl. to W. 37 St., Boardwalk","11224, 11235","Coney Island Beach & Boardwalk,New York, NY,11224, 11235",-73.9793298,40.5721302,"Brooklyn"
"153","X031","McKinley Square","E. 169 St., Boston Rd., Clinton Ave.","10456","McKinley Square,New York, NY,10456",-73.9006631,40.8311056,"Bronx"
"154","X147B","Daniel Boone Playground","Boone Av bet. W Farms Rd and Freeman St","10459","Daniel Boone Playground,New York, NY,10459",-73.8860372,40.8298554,"Bronx"
"155","X222","Gouverneur Playground","3 Av bet. E 170 St and St Paul's Pl","10456","Gouverneur Playground,New York, NY,10456",-73.9033731,40.8356154,"Bronx"
"156","Q173","American Triangle","41 Av, 102 St, National Av","11368","American Triangle,New York, NY,11368",-73.8633622,40.748427,"Queens"
"157","Q060","Nine Heroes Plaza","Broadway, 41 Ave., 76 St.","11373","Nine Heroes Plaza,New York, NY,11373",-73.8890726,40.7455289,"Queens"
"158","X030","Macombs Dam Park","River Ave. to the Harlem River bet. E. 157 St. , W. 161 St. and E. 164 St.","10451, 10452","Macombs Dam Park,New York, NY,10451, 10452",-73.9276205,40.8282238,"Bronx"
"159","X348","River Avenue Parks","E 157 St bet. River Av and Gerard Av","10451","River Avenue Parks,New York, NY,10451",-73.9270008,40.8253632,"Bronx"
"160","Q336","Judge Moses Weinstein Playground","Union Turnpike, Vleigh Pl., 141 St.","11367","Judge Moses Weinstein Playground,New York, NY,11367",-73.8204022,40.7181533,"Queens"
"161","Q012","Crocheron Park","214 Pl., 214 La., 215 Pl, Cross Island Pkwy. bet. 33 Ave. and 35 Ave.","11361","Crocheron Park,New York, NY,11361",-73.767643,40.7718307,"Queens"
"162","Q066F","Hoyt Playground","Hoyt Ave. North bet. 29 St. and 31 St.","11102","Hoyt Playground,New York, NY,11102",-73.9171582,40.7715354,"Queens"
"163","R046","Franklin D. Roosevelt Boardwalk and Beach","Ft. Wadsworth To Miller Field, Fr Capodanno Blvd.","10305, 10306","Franklin D. Roosevelt Boardwalk and Beach,New York, NY,10305, 10306",-74.0928499,40.5680911,"Staten Island"
"164","M052","Madison Square Park","Broadway, Madison Ave. bet. E. 23 St. and E. 26 St.","10010","Madison Square Park,New York, NY,10010",-73.9877701,40.7425999,"Manhattan"
"165","R170","Stapleton Esplanade","Front St. bet. Wave St. and Canal St.","10304","Stapleton Esplanade,New York, NY,10304",-74.0784785,40.6288778,"Staten Island"
"166","R024","Tompkinsville Park","Bay St., Victory Blvd.","10301","Tompkinsville Park,New York, NY,10301",-74.0764593,40.6374135,"Staten Island"
"167","R028","Tappen Park","Canal St., Water St., Bay St.","10304","Tappen Park,New York, NY,10304",-74.0767282,40.6267868,"Staten Island"
"168","M164","Asser Levy Playground","E. 23 St. To E. 25 St., FDR Drive","10010","Asser Levy Playground,New York, NY,10010",-73.9753834,40.7366407,"Manhattan"
"169","X008","Claremont Park","Clay Ave., Anthony Ave. bet. Mount Eden Pkwy. and E. 170 St","10457","Claremont Park,New York, NY,10457",-73.9075506,40.8409,"Bronx"
"170","X118","Soundview Park","Bronx River, Bronx River Ave. bet. Lafayette Ave., Surf Dr.","10473","Soundview Park,New York, NY,10473",-73.8727799,40.8171401,"Bronx"
"171","B007","Bensonhurst Park","Cropsey Ave. bet. 21 Ave. and Bay Pkwy.","11214","Bensonhurst Park,New York, NY,11214",-74.000755,40.59726,"Brooklyn"
"172","B056","Martin Luther King Jr. Playground","Dumont Ave., Blake Ave. bet. Bradford St. and Miller Ave.","11207","Martin Luther King Jr. Playground,New York, NY,11207",-73.8904105,40.6676449,"Brooklyn"
"173","B145","Thomas Greene Playground","Nevins St., 3 Ave., bet. De Graw St. and Douglas St.","11217","Thomas Greene Playground,New York, NY,11217",-73.9852314,40.6802801,"Brooklyn"
"174","R145","Seaside Wildlife Nature Park","Nelson Ave., Tennyson Dr. and Bulkhead Line","10308","Seaside Wildlife Nature Park,New York, NY,10308",-74.1430327,40.5401773,"Staten Island"
"175","X047","Franz Sigel Park","NYCRR, Walton Ave, E 158 St, Grand Concourse","10451","Franz Sigel Park,New York, NY,10451",-73.9256677,40.8230286,"Bronx"
"176","R015","Walker Park","Delafield Pl., Bard Ave., and Davis Ave.","10310","Walker Park,New York, NY,10310",-74.1094586,40.6432149,"Staten Island"
"177","B087","Sunset Park","41 St., 44 St., bet. 5 Ave. and 7 Ave.","11232","Sunset Park,New York, NY,11232",-74.0079781,40.6560436,"Brooklyn"
"178","R038","Midland Playground","Lincoln Ave., Mason Ave., Midland Ave., Poultney St.","10306","Midland Playground,New York, NY,10306",-74.0988633,40.5751161,"Staten Island"
"179","Q021C","Seven Gables Playground","210 St., Oceania St. bet. the Long Island Exwy. and 64 Ave.","11364","Seven Gables Playground,New York, NY,11364",-73.7663131,40.7440186,"Queens"
"180","B073","Prospect Park","Prospect Pk W, Flatbush, Parkside, Ocean Aves","11215","Prospect Park,New York, NY,11215",-73.9689558,40.6602037,"Brooklyn"
"181","X041","Pulaski Park","Bruckner Blvd. bet. Willis Ave. and Brown Pl.","10454","Pulaski Park,New York, NY,10454",-73.9244088,40.8052393,"Bronx"
"182","M071","Riverside Park","Riverside Dr. to Hudson River, W. 72 St.to St Clair Pl.","10023, 10024, 10025","Riverside Park,New York, NY,10023, 10024, 10025",-73.967289,40.8096051,"Manhattan"
"183","Q134","Breininger Park","240 St. bet. Braddock Ave. and Fairbury Ave.","11426","Breininger Park,New York, NY,11426",-73.7290298,40.7258447,"Queens"
"184","Q048","Rainey Park","Vernon Blvd. bet. 33 Rd. and 34 Ave.","11106","Rainey Park,New York, NY,11106",-73.9407026,40.7661129,"Queens"
"185","M005","The Battery","Battery Pl, State St and Whitehall St","10004, 10280","The Battery,New York, NY,10004, 10280",-74.0159996,40.703141,"Manhattan"
"186","M015","Columbus Park","Baxter St, Mulberry St, Bayard St and Park","10013","Columbus Park,New York, NY,10013",-74.0000483,40.7155353,"Manhattan"
"187","B066","Owl's Head Park","Shore Rd., 68 St., Colonial Rd.","11220","Owl's Head Park,New York, NY,11220",-74.0322522,40.6401377,"Brooklyn"
"188","B052","Leif Ericson Park","67 St., 66 St. bet. 4 Ave. and Ft. Hamilton Pkwy.","11219, 11220","Leif Ericson Park,New York, NY,11219, 11220",-74.0229794,40.6372953,"Brooklyn"
"189","M399","Bella Abzug Park","Hudson Blvd. bet. W. 36 St. and W. 33 St.","10001, 10018","Bella Abzug Park,New York, NY,10001, 10018",-74.0006194,40.7555569,"Manhattan"
"190","R029","Westerleigh Park","Willard Ave., Springfield Ave., Maine Ave., Neal Dow Ave.","10314","Westerleigh Park,New York, NY,10314",-74.1344668,40.6197065,"Staten Island"
"191","B251","Manhattan Beach Park","Oriental Blvd. between Ocean Ave. and Mackenzie St.","11235","Manhattan Beach Park,New York, NY,11235",-73.942583,40.5768049,"Brooklyn"
"192","B192","Russell Pedersen Playground","Colonial Rd. from 83 St. to 85 St.","11209","Russell Pedersen Playground,New York, NY,11209",-74.0361155,40.6263553,"Brooklyn"
"193","B252","West Playground","Ave. Z between W. 1 St. and West St.","11223","West Playground,New York, NY,11223",-73.9700866,40.5873442,"Brooklyn"
"194","Q465","Socrates Sculpture Park","Vernon Blvd. bet. Broadway and 30 Dr.","11106","Socrates Sculpture Park,New York, NY,11106",-73.9366574,40.7685098,"Queens"
"195","M081","Carl Schurz Park","East End Av To East River, E 84 St To E 90 St","10028","Carl Schurz Park,New York, NY,10028",-73.9436973,40.7751302,"Manhattan"
"196","B125","Calvert Vaux Park","Gravesend Bay, Bay 44 St. to Bay 49 St., Shore Pkwy.","11214","Calvert Vaux Park,New York, NY,11214",-73.9952563,40.5843671,"Brooklyn"
"197","B080","Asser Levy Park","Boardwalk, Surf Ave., Sea Breeze Ave., Ocean Parkway","11224","Asser Levy Park,New York, NY,11224",-73.9713897,40.5751863,"Brooklyn"
"198","M376","West Harlem Piers","Henry Hudson Pkwy. bet. St Clair Pl. and W. 135 St.","10024, 10027","West Harlem Piers,New York, NY,10024, 10027",-73.9610999,40.8194924,"Manhattan"
"199","R106","Bloomingdale Park","Richmond Pkwy., West Shore Expw., Lenevar Ave., Ramona Ave.","10309","Bloomingdale Park,New York, NY,10309",-74.2105955,40.5334003,"Staten Island"
"200","X010","Crotona Park","Crotona Park North to South, Fulton Av to Southern Blvd and Crotona Park East","10456, 10457, 10460","Crotona Park,New York, NY,10456, 10457, 10460",-73.8953489,40.8400367,"Bronx"
"201","Q105","Howard Von Dohlen Playground","91 Ave., Archer Ave. bet. 138 Pl. and 138 St.","11435","Howard Von Dohlen Playground,New York, NY,11435",-73.8130718,40.6996426,"Queens"
"202","M088","Tompkins Square Park","Ave. A To Ave. B, E. 7 St. To E. 10 St.","10009","Tompkins Square Park,New York, NY,10009",-73.9817841,40.7264295,"Manhattan"
"203","B054","Lincoln Terrace / Arthur S. Somers Park","Eastern Pkwy., E. New York Ave. bet. Rochester Ave. and Portal St.","11213, 11233","Lincoln Terrace / Arthur S. Somers Park,New York, NY,11213, 11233",-73.9272053,40.6668637,"Brooklyn"
"204","BT15","Bush Terminal Park","Marginal St. bet. 44 St. and 50 St.","11232","Bush Terminal Park,New York, NY,11232",-74.0201023,40.6534111,"Brooklyn"
"205","B082","Shore Park and Parkway","4 Ave., Shore Rd., Belt Pkwy., Verrazano Bridge","11209, 11220","Shore Park and Parkway,New York, NY,11209, 11220",-74.0387838,40.6150368,"Brooklyn"
"206","Q053","Equity Playground","88 Ave. to 89 Ave. at 90 St.","11421","Equity Playground,New York, NY,11421",-73.8533438,40.6912903,"Queens"
"207","Q129","Phil ""Scooter"" Rizzuto Park","Atlantic Ave., 95 Ave. bet. 127 St. and 125 St.","11419","Phil ""Scooter"" Rizzuto Park,New York, NY,11419",-73.8216889,40.6947111,"Queens"
"208","M082","Seward Park","Canal St, Essex St, Jefferson St and E Broadway","10002","Seward Park,New York, NY,10002",-73.989247,40.7149056,"Manhattan"
"209","M194","Alfred E. Smith Playground","Catherine Slip, Madison St. and South St.","10038","Alfred E. Smith Playground,New York, NY,10038",-73.9973097,40.7110333,"Manhattan"
"210","M019","Coleman Playground","Cherry St, Pike St, Monroe St","10002","Coleman Playground,New York, NY,10002",-73.9936545,40.7112051,"Manhattan"
"211","M004","Allen Mall One","E Houston St, E Broadway","10002","Allen Mall One,New York, NY,10002",-73.9906508,40.7186419,"Manhattan"
"212","Q133","Pat Williams Playground","Hempstead Ave., 225 St. and 224 St. Cross Island Parkway Exit at 225 St.","11429","Pat Williams Playground,New York, NY,11429",-73.7295034,40.7130707,"Queens"
"213","B164","Bath Beach Park","Shore Pkwy. bet. Bay 14 St. and Bay 16 St.","11214","Bath Beach Park,New York, NY,11214",-74.0110979,40.6024626,"Brooklyn"
"214","R105","Prall Playground","Elizabet.h St., Forest Ave., Broadway, Clove Lake Pl.","10310","Prall Playground,New York, NY,10310",-74.1180166,40.6287216,"Staten Island"
"215","X126","Ferry Point Park","Schley Ave., LI Sound bet. Westchester Creek and Balcom Ave.","10465","Ferry Point Park,New York, NY,10465",-73.8377874,40.8114955,"Bronx"
"216","RZ302",NA,NA,NA,"NA,New York, NY,NA",-74.0081611,40.732343,"Staten Island"
"217","M283","Battery Park City","Hudson River, Liberty St. West St, and Pier A","10007, 10013, 10280","Battery Park City,New York, NY,10007, 10013, 10280",-74.0087126,40.7136487,"Manhattan"
"218","M201","Wald Playground","E. Houston St. and FDR Dr.","10009","Wald Playground,New York, NY,10009",-73.9768488,40.7197094,"Manhattan"
"219","M227","Peter's Field","E. 20 St. To E. 21 St., 1 Ave. To 2 Ave.","10010","Peter's Field,New York, NY,10010",-73.9817975,40.7361431,"Manhattan"
"220","M099","J. Hood Wright Park","W. 173 St. bet. Haven Ave. and Ft. Washington Ave.","10033","J. Hood Wright Park,New York, NY,10033",-73.941493,40.8463679,"Manhattan"
"221","R059","Von Briesen Park","Tompkins Ave., Bay St. bet. School Rd., North Rd.","10305","Von Briesen Park,New York, NY,10305",-74.0597543,40.6073536,"Staten Island"
"222","R088","High Rock Park","Richmond Pkwy., Manor Rd., Summit Ave., Rockland Ave., and Moravian Cemetary","10304, 10306","High Rock Park,New York, NY,10304, 10306",-74.1230547,40.5825314,"Staten Island"
"223","R064","Christopher J. Igneri Playground","Schmidts La., Manor Rd. and Laguardia Ave.","10314","Christopher J. Igneri Playground,New York, NY,10314",-74.1197621,40.6087015,"Staten Island"
"224","R078","Northerleigh Park","Burnside Ave. to North Ave. at Shaw Pl. and Eldridge Ave.","10302","Northerleigh Park,New York, NY,10302",-74.1339056,40.6227472,"Staten Island"
"225","B223PD","Rodney Playground Center","Rodney St., S. 3 St., Borniquen Pl.","11211","Rodney Playground Center,New York, NY,11211",-73.9555449,40.7101962,"Brooklyn"
"226","R076","Markham Playground","Willowbrook Pkwy., Forest Ave. to Houston St.","10302","Markham Playground,New York, NY,10302",-74.1458331,40.6233382,"Staten Island"
"227","R150","Graniteville Quarry Park","Forest Ave. Wilcox Ave., bet. Van Name Ave. and Eunice Pl.","10303","Graniteville Quarry Park,New York, NY,10303",-74.1539067,40.6247806,"Staten Island"
"228","R034","Austin J. McDonald Playground","Forest Ave., Myrtle Ave., Broadway, N. Burgher Ave.","10310","Austin J. McDonald Playground,New York, NY,10310",-74.115174,40.6297104,"Staten Island"
"229","R017A","Greenbelt Native Plant Center","Victory Blvd. bet. Ridgeway Ave. and Travis Ave.","10314","Greenbelt Native Plant Center,New York, NY,10314",-74.18117,40.596244,"Staten Island"
"230","B223R","Jaime Campiz Playground","Hope St., Marcy Ave., Metropolitan Ave.","11211","Jaime Campiz Playground,New York, NY,11211",-73.9541244,40.7136142,"Brooklyn"
"231","B114","Msgr. McGolrick Park","Russell St., Monitor St. bet. Nassau Ave. and Driggs Ave.","11222","Msgr. McGolrick Park,New York, NY,11222",-73.9433497,40.7244763,"Brooklyn"
"232","M235","Sol Lain Plgd","E. Broadway, Henry St., Gouverneur St.","10002","Sol Lain Plgd,New York, NY,10002",-73.9840313,40.7142911,"Manhattan"
"233","B127","Martinez Playground","Scholes St. bet. Manhattan Ave. and Graham Ave.","11206","Martinez Playground,New York, NY,11206",-73.9444694,40.7090996,"Brooklyn"
"234","BZ231",NA,NA,NA,"NA,New York, NY,NA",-74.0081611,40.732343,"Brooklyn"
"235","R149","Ocean Breeze Park","Quintard St. and Mason Ave, Seaside Blvd., (Father Capodanno Blvd.)","10305","Ocean Breeze Park,New York, NY,10305",-74.0784785,40.5867692,"Staten Island"
"236","R017","Freshkills Park","Victory Blvd,Signs Rd,Travis Ave,Arthur Kill Rd","10312, 10314","Freshkills Park,New York, NY,10312, 10314",-74.1858183,40.5772365,"Staten Island"
"237","RZ306",NA,NA,NA,"NA,New York, NY,NA",-74.0081611,40.732343,"Staten Island"
"238","X004","Bronx River Parkway","Bronx River bet. Burke Ave. and the New York City-Westchester Line","10460, 10466, 10467, 10470, 10472, 10473, 10704","Bronx River Parkway,New York, NY,10460, 10466, 10467, 10470, 10472, 10473, 10704",-73.8705076,40.8766781,"Bronx"
"239","X104","Williamsbridge Oval","Van Cortlandt Ave. East, Resevoir Oval E","10467","Williamsbridge Oval,New York, NY,10467",-73.8786095,40.8766525,"Bronx"
"240","M386","Imagination Playground","Front St., John St., and South St.","10038","Imagination Playground,New York, NY,10038",-74.0041962,40.7062786,"Manhattan"
"241","BZ03",NA,NA,NA,"NA,New York, NY,NA",-74.0081611,40.732343,"Brooklyn"
"242","R109","CPL. Thompson Park","Broadway, Henderson Ave., Chappell St.","10310","CPL. Thompson Park,New York, NY,10310",-74.1188551,40.637932,"Staten Island"
"243","Q215","Whitey Ford Field","26 Ave., bet. 1 St. and 2 St.","11102","Whitey Ford Field,New York, NY,11102",-73.9346421,40.7774225,"Queens"
"244","R052","Allison Pond Park","Prospect Ave., N Randall Ave. and Brentwood Ave.","10301","Allison Pond Park,New York, NY,10301",-74.1016724,40.6371571,"Staten Island"
"245","R129","Blood Root Valley","Rockland Ave., Manor Ave., Brielle Ave., Forest Hill Rd.","10314","Blood Root Valley,New York, NY,10314",-74.1318797,40.5855877,"Staten Island"
"246","B151","Dome Playground","Dahill Rd. bet. 37 St. and 38 St.","11218","Dome Playground,New York, NY,11218",-73.9798911,40.6380542,"Brooklyn"
"247","RZ305",NA,NA,NA,"NA,New York, NY,NA",-74.0081611,40.732343,"Staten Island"
"248","R104","South Shore Country Club","West Shore Exwy., Huguenot Ave., Alverson Ave., W. Castor Pl.","10309, 10312","South Shore Country Club,New York, NY,10309, 10312",-74.204799,40.551534,"Staten Island"
"249","R006","Conference House Park","Pittsville St., Hylan Blvd. Richard Ave.","10307, 10309","Conference House Park,New York, NY,10307, 10309",-74.2516134,40.5010869,"Staten Island"
"250","R079","Lemon Creek Park","Hylan Blvd. from Sharrott Ave. to Seguine Ave.","10309","Lemon Creek Park,New York, NY,10309",-74.197488,40.5116427,"Staten Island"
"251","R031","Wolfe's Pond Park","Holton Ave., Chisolm St., Luten Ave., Arbutus Ave. and Raritan Bay","10309, 10312","Wolfe's Pond Park,New York, NY,10309, 10312",-74.1937797,40.5228868,"Staten Island"
"252","Q080","Veterans Plaza","Jackson Mill Rd., 32 Ave. bet. 93 St. and 94 St.","11369","Veterans Plaza,New York, NY,11369",-73.8749293,40.7587468,"Queens"
"253","X196","Haffen Park","Hammersley Ave. to Burke Ave. bet. Ely Ave. and Gunther Ave.","10469","Haffen Park,New York, NY,10469",-73.8390434,40.8735317,"Bronx"
"254","B294","Jackie Robinson Park Playground","Malcom X Blvd. between Chauncey St. and Marion St.","11233","Jackie Robinson Park Playground,New York, NY,11233",-73.928016,40.6801869,"Brooklyn"
"255","X194","Captain Rivera Playground","E 156 St bet. Jackson Av and Forest Av","10455","Captain Rivera Playground,New York, NY,10455",-73.906772,40.8178344,"Bronx"
"256","Q341C","Sherry Dog Run","Queens Blvd. bet. 65 Pl. and the BQE","11377","Sherry Dog Run,New York, NY,11377",-73.8988414,40.7412998,"Queens"
"257","Q006","Bowne Park","29 Ave., 32 Ave. bet. 155 St. and 159 St.","11354","Bowne Park,New York, NY,11354",-73.8072049,40.7704771,"Queens"
"258","M072","Riverside Park","Riverside Dr to Henry Hudson Pkwy, W 153 St","10027, 10031","Riverside Park,New York, NY,10027, 10031",-73.967289,40.8096051,"Manhattan"
"259","M220","Frederick Douglass Playground","Amsterdam Ave bet. W. 100 St. and W 102 St.","10025","Frederick Douglass Playground,New York, NY,10025",-73.9675438,40.7972173,"Manhattan"
"260","X009","Monsignor Raul Del Valle Square","Hunts Point Av, Bruckner Blvd, E 163 St","10459","Monsignor Raul Del Valle Square,New York, NY,10459",-73.8906396,40.8207157,"Bronx"
"261","Q351","Peters Field","Liberty Ave. bet. 183 St. and 183 Pl.","11423","Peters Field,New York, NY,11423",-73.7749363,40.7058952,"Queens"
"262","B012","Brower Park","St. Mark's Ave., Park Pl. bet. Brooklyn Ave. and Kingston Ave.","11213","Brower Park,New York, NY,11213",-73.943234,40.673499,"Brooklyn"
"263","X166","Behagen Playground","Tinton Av bet. E 166 St and E 165 St","10456","Behagen Playground,New York, NY,10456",-73.9012602,40.8253722,"Bronx"
"264","Q106","Daniel M. O'Connell Playground","197 St., 196 St. bet. 113 Ave. and Murdock Ave.","11412","Daniel M. O'Connell Playground,New York, NY,11412",-73.7582662,40.6999581,"Queens"
"265","Q121","Detective Keith L Williams Park","Liberty Ave. bet. 172 St. and 173 St.","11433","Detective Keith L Williams Park,New York, NY,11433",-73.7844531,40.7028871,"Queens"
"266","Q220A",NA,NA,NA,"NA,New York, NY,NA",-74.0081611,40.732343,"Queens"
"267","B088","Herbert Von King Park","Marcy Ave., Tompkins Ave., bet. Greene Ave. and Lafayette Ave.","11216","Herbert Von King Park,New York, NY,11216",-73.946732,40.689612,"Brooklyn"
"268","B219","Callahan-Kelly Playground","Fulton St., Truxton St., bet. Eastern Pkwy. and Van Sinderen Ave.","11233","Callahan-Kelly Playground,New York, NY,11233",-73.9053022,40.6783971,"Brooklyn"
"269","B079","Saratoga Park","Halsey St. bet. Howard Ave. and Saratoga Ave.","11233","Saratoga Park,New York, NY,11233",-73.9189767,40.6849146,"Brooklyn"
"270","B111A","Washington Park","5 St., 4 St. bet. 4 Ave. and 5 Ave.","11215","Washington Park,New York, NY,11215",-73.9853398,40.6729136,"Brooklyn"
"271","B035","John Paul Jones Park","101 St., Shore Pkwy. bet. 4 Ave. and Ft. Hamilton Pkwy.","11209","John Paul Jones Park,New York, NY,11209",-74.0340919,40.6108083,"Brooklyn"
"272","M002","Ahearn Park","Grand St, E Broadway and Willet St","10002","Ahearn Park,New York, NY,10002",-73.9835657,40.7147983,"Manhattan"
"273","M224","Straus Square","Canal St., Rutgers St. and E. Broadway","10002","Straus Square,New York, NY,10002",-73.9900752,40.7141712,"Manhattan"
"274","B381","Thomas Boyland Park","Broadway between Granite St. and Aberdeen St.","11207","Thomas Boyland Park,New York, NY,11207",-73.9073194,40.6814551,"Brooklyn"
"275","R075A","Father Macris Park","S/s Of SI Expressway., Exit 6, Fahy Ave., Lamberts La.","10314","Father Macris Park,New York, NY,10314",-74.1614187,40.6164813,"Staten Island"
"276","Q341F","Crosson Park","Woodside Ave., 69 St., the BQE","11377","Crosson Park,New York, NY,11377",-73.8958826,40.7429615,"Queens"
"277","Q198",NA,NA,NA,"NA,New York, NY,NA",-74.0081611,40.732343,"Queens"
"278","B254","Wingate Park","Winthrop St., Brooklyn Ave., Rutland Rd.","11203","Wingate Park,New York, NY,11203",-73.9444777,40.6589417,"Brooklyn"
"279","B285","Harry Maze Playground","Ave. D, Ditmas Ave. bet. E. 56 St. and E. 57 St.","11203","Harry Maze Playground,New York, NY,11203",-73.9231229,40.6430626,"Brooklyn"
"280","RZ171",NA,NA,NA,"NA,New York, NY,NA",-74.0081611,40.732343,"Staten Island"
"281","B017","Bushwick Playground","Knickerbocker Ave. bet. Woodbine St. and Putnam Ave.","11237","Bushwick Playground,New York, NY,11237",-73.911887,40.696068,"Brooklyn"
"282","X187","Givan Square","E. Gunhill Rd. and Eastchester Rd. bet. Arnow Ave. and Adee Ave..","10469","Givan Square,New York, NY,10469",-73.842405,40.8684768,"Bronx"
"283","B585","Prospect Plaza Park","Park Pl. to Sterling Pl. bet. Howard Ave. and Saratoga Ave.","11233","Prospect Plaza Park,New York, NY,11233",-73.9182863,40.6710165,"Brooklyn"
"284","M205","Playground One Twenty Five CXXV","Morningside Ave., W. 123 St. and W. 124 St.","10027","Playground One Twenty Five CXXV,New York, NY,10027",-73.9551349,40.8104515,"Manhattan"
"285","X028","Joyce Kilmer Park","Grand Concourse to Walton Av bet. E 161 St and E 164 St","10451","Joyce Kilmer Park,New York, NY,10451",-73.9224792,40.8286949,"Bronx"
"286","B058","McCarren Park","Nassau Ave, Bayard, Leonard & N 12 Sts","11211, 11222","McCarren Park,New York, NY,11211, 11222",-73.95244,40.7210549,"Brooklyn"
"287","B078","Grace Playground","Vermont St. bet. Pitkin Ave. and Belmont Ave.","11207","Grace Playground,New York, NY,11207",-73.8942783,40.6712606,"Brooklyn"
"288","B260","Howard Playground","Mother Gaston Blvd. and Glenmore Ave.","11212","Howard Playground,New York, NY,11212",-73.9079821,40.6716524,"Brooklyn"
"289","B228","Dr. Green Playground","Mother Gaston Blvd. and Sutter Ave.","11212","Dr. Green Playground,New York, NY,11212",-73.906732,40.6672149,"Brooklyn"
"290","R008","Faber Pool and Park","Richmond Ter. To Kill Van Kull, Faber St.","10302","Faber Pool and Park,New York, NY,10302",-74.1357153,40.6408881,"Staten Island"
"291","R083",NA,NA,NA,"NA,New York, NY,NA",-74.0081611,40.732343,"Staten Island"
"292","B105","Taaffe Playground","Taaffe Pl. bet. Park Ave. and Myrtle Ave.","11205","Taaffe Playground,New York, NY,11205",-73.9607797,40.6955676,"Brooklyn"
"293","M191","Father Demo Square","Ave. of Americas, Bleecker St. and Carmine St.","10014","Father Demo Square,New York, NY,10014",-74.0021894,40.7302614,"Manhattan"
"294","X201","Seton Park","W 232 St , Independence Av , W 235 St ,","10463, 10471","Seton Park,New York, NY,10463, 10471",-73.9165092,40.885941,"Bronx"
"295","B217","Marcy Playground","Myrtle Ave. bet. Nostrand Ave. and Marcy Ave.","11206","Marcy Playground,New York, NY,11206",-73.9509272,40.6954932,"Brooklyn"
"296","R045","Schmul Park","Wild Ave., Pearson St., Melvin Ave.","10314","Schmul Park,New York, NY,10314",-74.1877854,40.5899237,"Staten Island"
"297","M124","First Park","Houston St., E. 1 St., 1 Ave.","10003","First Park,New York, NY,10003",-73.9892907,40.723394,"Manhattan"
"298","M123","Peretz Square","E. 1 St., E. Houston St., 1 Ave. and Allen St.","10003","Peretz Square,New York, NY,10003",-73.9878091,40.7229119,"Manhattan"
"299","M069","Vesuvio Playground","Thompson St bet. Spring St and Prince St","10012","Vesuvio Playground,New York, NY,10012",-74.0025474,40.7253366,"Manhattan"
"300","R016","Great Kills Park","Hylan Blvd., Old Mill Rd., Cedar Grove Ave. bet. Hopkins Ave. and New Dorp La.","10306","Great Kills Park,New York, NY,10306",-74.1268624,40.5487574,"Staten Island"
"301","Q410","Hinton Park","114 St., 113 St. bet. 34 Ave. and 37 Ave.","11368","Hinton Park,New York, NY,11368",-73.8549281,40.7559775,"Queens"
"302","B042","Gravesend Park","18 Ave., 19 Ave., bet. 55 St. and 58 St.","11204","Gravesend Park,New York, NY,11204",-73.9842885,40.6234499,"Brooklyn"
"303","R042","Kaltenmeier Playground","Virginia Ave. and Anderson St.","10305","Kaltenmeier Playground,New York, NY,10305",-74.0684597,40.614703,"Staten Island"
"304","X228","I-Am-Park","Jackson Av bet. E 147 St and E 145 St","10455","I-Am-Park,New York, NY,10455",-73.910178,40.8112768,"Bronx"
"305","B362","Chester Playground","Chester St. to Bristol St. between Sutter Ave. and Pitkin Ave.","11212","Chester Playground,New York, NY,11212",-73.91189,40.6688534,"Brooklyn"
"306","R004","Barrett Triangle","Hyatt St., Bay St., Stuyvesant Pl. and Richmond Ter.","10301","Barrett Triangle,New York, NY,10301",-74.0758095,40.6418112,"Staten Island"
"307","Q359","Haggerty Park","Jamaica Ave. bet. 202 St. and 204 St.","11423","Haggerty Park,New York, NY,11423",-73.7577077,40.7129811,"Queens"
"308","R069","Terrace Playground","Foote Ave., Howard Ave., Martha St., Clove Rd.","10301","Terrace Playground,New York, NY,10301",-74.0987625,40.6136155,"Staten Island"
"309","X022","Benjamin Gladstone Square","Hoe Ave., Westchster Ave., W. Farms Rd.","10459","Benjamin Gladstone Square,New York, NY,10459",-73.891017,40.825335,"Bronx"
"310","R090","Lieutenant John H. Martinson Playground","Preston Ave. bet. Koch Blvd. and Osborne St.","10312","Lieutenant John H. Martinson Playground,New York, NY,10312",-74.1625886,40.536913,"Staten Island"
"311","B277","Benson Playground","Bath Ave. between Bay 22 St. and Bay 23 St.","11214","Benson Playground,New York, NY,11214",-74.0022151,40.6024999,"Brooklyn"
"312","Q474","Simeone Park","Lewis Ave., Radcliff Ave. bet. 101 St. and 102 St.","11368","Simeone Park,New York, NY,11368",-73.8601003,40.7411306,"Queens"
"313","Q066D","Triborough Bridge Playground D","Hoyt Ave., bet. 24 St. and Crescent St.","11102","Triborough Bridge Playground D,New York, NY,11102",-73.9215739,40.7734885,"Queens"
"314","QT19",NA,NA,NA,"NA,New York, NY,NA",-74.0081611,40.732343,"Queens"
"315","R026","Gerard P. Dugan Playground","Mill Rd. to Weed Ave. bet. Tysens La. and Isernia Ave.","10306","Gerard P. Dugan Playground,New York, NY,10306",-74.1107738,40.5613882,"Staten Island"
"316","B050","Van Voorhees Playground","Columbia St., Hicks St. bet. Congress St. and Atlantic Ave.","11201","Van Voorhees Playground,New York, NY,11201",-73.9994919,40.689793,"Brooklyn"
"317","Q067A","General Hart Playground","Broadway, 37 Ave. bet. 65 St. and 69 St.","11377","General Hart Playground,New York, NY,11377",-73.8194816,40.7741357,"Queens"
"318","Q340","Torsney Playground","Skillman Ave. bet. 41 St. and 43 St.","11104","Torsney Playground,New York, NY,11104",-73.9217818,40.7472831,"Queens"
"319","R063","Old Town Playground","Parkinson Ave. at Kramer St.","10305","Old Town Playground,New York, NY,10305",-74.0814254,40.5954206,"Staten Island"
"320","R073","Naples Playground","Targee St, Stanwich St. Rome Ave.","10304","Naples Playground,New York, NY,10304",-74.0903571,40.6024777,"Staten Island"
"321","R021","Forest Mall","Forest Ave. bet. Haven Esplanade and Duer La.","10301","Forest Mall,New York, NY,10301",-74.0909481,40.6309025,"Staten Island"
"322","RZ81",NA,NA,NA,"NA,New York, NY,NA",-74.0081611,40.732343,"Staten Island"
"323","B293","Classon Playground","Lafayette Ave. and Classon Ave.","11205","Classon Playground,New York, NY,11205",-73.9604123,40.6893342,"Brooklyn"
"324","B268","Nautilus Playground","Public Beach, W. 29 St. and W. 32 St.","11224","Nautilus Playground,New York, NY,11224",-73.996192,40.5715845,"Brooklyn"
"325","X154","Melrose Playground","Courtlandt Av bet. E 154 St and E 155 St","10451","Melrose Playground,New York, NY,10451",-73.9183464,40.8204075,"Bronx"
"326","B385","WNYC Transmitter Park","West St. bet. Kent St. and Greenpoint Ave.","11222","WNYC Transmitter Park,New York, NY,11222",-73.9607685,40.7298447,"Brooklyn"
"327","B001","American Playground","Franklin St. bet. Milton St. and Noble St.","11222","American Playground,New York, NY,11222",-73.957855,40.728831,"Brooklyn"
"328","B337","Century Playground","W. Brighton Ave. between W. 2 St. and W. 3 St.","11224","Century Playground,New York, NY,11224",-73.970055,40.5767757,"Brooklyn"
"329","B289","Cutinella Triangle","Ave. W, W. 6 St. and 86 St.","11223","Cutinella Triangle,New York, NY,11223",-73.9768297,40.591832,"Brooklyn"
"330","B094","Sgt. Joyce Kilmer Triangle","E. 12 St., Kings Hwy., Quentin Rd.","11229","Sgt. Joyce Kilmer Triangle,New York, NY,11229",-73.9606635,40.6078921,"Brooklyn"
"331","B205","Corporal Wiltshire Square","Ave. P, Kings Hwy., Ocean Ave.","11229","Corporal Wiltshire Square,New York, NY,11229",-73.9533815,40.6108649,"Brooklyn"
"332","BT14",NA,NA,NA,"NA,New York, NY,NA",-74.0081611,40.732343,"Brooklyn"
"333","B306","Playground 286","Ave. Y between Brown St. and Haring St.","11235","Playground 286,New York, NY,11235",-73.9384022,40.591086,"Brooklyn"
"334","B244","McDonald Playground","Mcdonald Ave. between Ave. S and Ave. T","11223","McDonald Playground,New York, NY,11223",-73.9720469,40.6005842,"Brooklyn"
"335","X146","Flynn Playground","Brook Av to 3 Av bet. E 157 St and E 158 St","10451","Flynn Playground,New York, NY,10451",-73.9119163,40.8210352,"Bronx"
"336","M056","Morningside Park","W 110 St To W 123 St, Manhattan Av To Morningside Av","10026","Morningside Park,New York, NY,10026",-73.9585391,40.8060712,"Manhattan"
"337","Q066B","Triborough Bridge Playground B","Hoyt Ave. bet. 21 St. and 23 St.","11102","Triborough Bridge Playground B,New York, NY,11102",-73.9232439,40.7745875,"Queens"
"338","Q303","Travers Park","34 Ave. bet. 77 St. and 78 St.","11372","Travers Park,New York, NY,11372",-73.889362,40.7539534,"Queens"
"339","B234","Tilden Playground","Tilden Ave. between E. 48 St. and E. 49 St.","11203","Tilden Playground,New York, NY,11203",-73.9314245,40.647649,"Brooklyn"
"340","X046","Seton Falls Park","E. 233 St. bet. Seton Ave. and Baychester Ave.","10466","Seton Falls Park,New York, NY,10466",-73.8382306,40.8867535,"Bronx"
"341","B236","Glenwood Playground","Ralph Ave. and Farragut Rd.","11234","Glenwood Playground,New York, NY,11234",-73.9197883,40.6367237,"Brooklyn"
"342","X193","Stars & Stripes Playground","Crawford Ave. at Baychester Ave.","10466","Stars & Stripes Playground,New York, NY,10466",-95.6358855,37.0355267,"Bronx"
"343","X165","Edenwald Playground","Schieffelin Ave. bet. E. 266 Dr. and E. 229 St.","10466","Edenwald Playground,New York, NY,10466",-73.8450307,40.8841875,"Bronx"
"344","B239","Sheepshead Playground","Ave. Z between Nostrand Ave. and E. 29 St.","11235","Sheepshead Playground,New York, NY,11235",-73.9402889,40.5889065,"Brooklyn"
"345","B235","Herman Dolgon Playground","Ave. V between Nostrand Ave. and Batchelder St.","11229","Herman Dolgon Playground,New York, NY,11229",-73.9398397,40.5982571,"Brooklyn"
"346","B209","Galapo Playground","Bedford Ave., Gravesend Neck Rd., Ave. V, E. 24 St.","11229","Galapo Playground,New York, NY,11229",-73.9467676,40.5978911,"Brooklyn"
"347","X001A","Aqueduct Walk","Dr. MLK Jr. Blvd. bet. W. Tremont Ave. and E. Fordham Rd.","10453, 10468","Aqueduct Walk,New York, NY,10453, 10468",-73.9083337,40.8578964,"Bronx"
"348","B208","Pfc Norton Playground","Nostrand Ave. bet. Kings Hwy. and Ave. P","11229","Pfc Norton Playground,New York, NY,11229",-73.9449232,40.6148,"Brooklyn"
"349","R156","Sylvan Grove Cemetery","Victory Blvd. and Glen St.","10314","Sylvan Grove Cemetery,New York, NY,10314",-74.1921536,40.5914039,"Staten Island"
"350","B197","Mellett Playground","Avenue V bet. E. 13 St. and E. 14 St.","11229","Mellett Playground,New York, NY,11229",-73.9574476,40.5969223,"Brooklyn"
"351","B349","Bath Playground","Bath Ave. between 24 Ave. and Bay 37 St.","11214","Bath Playground,New York, NY,11214",-73.9931036,40.5952949,"Brooklyn"
"352","B166","Belt Parkway/Shore Parkway","Belt Pkwy. bet. Verrazano Bridge and Cross Bay Blvd.","11208, 11209, 11214, 11223, 11228, 11234, 11235, 1","Belt Parkway/Shore Parkway,New York, NY,11208, 11209, 11214, 11223, 11228, 11234, 11235, 1",-73.869663,40.662477,"Brooklyn"
"353","B158","Garibaldi Playground","18 Ave. bet. 83 St. and 82 St.","11214","Garibaldi Playground,New York, NY,11214",-74.0001737,40.6090667,"Brooklyn"
"354","B099","Lt. Joseph Petrosino Park","16 Ave., New Utrecht Ave. bet. 70 St. and 71 St.","11228","Lt. Joseph Petrosino Park,New York, NY,11228",-73.998498,40.6191399,"Brooklyn"
"355","B063","Milestone Park","18 Ave. bet. 81 St. and 82 St.","11214","Milestone Park,New York, NY,11214",-73.9995829,40.609551,"Brooklyn"
"356","Q379","Briarwood Playground","148 St. bet. 85 Ave. and 85 Rd.","11435","Briarwood Playground,New York, NY,11435",-73.8112117,40.7103497,"Queens"
"357","X202","Marble Hill Playground","Marble Hill Av bet. W 230 St and W 228 St","10463, 10463","Marble Hill Playground,New York, NY,10463, 10463",-73.9082418,40.877523,"Bronx"
"358","Q407","Lanett Playground","Lanett Ave. bet. Beach 9 St. and Beach 8 St.","11691","Lanett Playground,New York, NY,11691",-73.7440693,40.5993189,"Queens"
"359","X163","Loreto Playground","Morris Park Ave. bet. Haight Ave. and Tomlinson Ave.","10461","Loreto Playground,New York, NY,10461",-73.8522186,40.8487854,"Bronx"
"360","X058","Keltch Park","Jerome Av bet. Macombs Rd and Elliot Pl","10452","Keltch Park,New York, NY,10452",-73.9176237,40.8407919,"Bronx"
"361","X174","Webster Playground","E. 188 St. bet. Webster Ave. and Park Ave.","10458","Webster Playground,New York, NY,10458",-73.8929218,40.8594545,"Bronx"
"362","X068","D'Auria-Murphy Triangle","Adams Pl bet. Cresent Av and E 183 St","10458","D'Auria-Murphy Triangle,New York, NY,10458",-73.8891341,40.8531982,"Bronx"
"363","M140","Recreational Area","W. 145 St., W. 155 St., Hudson River","10031, 10032","Recreational Area,New York, NY,10031, 10032",-73.9559555,40.8264236,"Manhattan"
"364","X108","Belmont Playground","E 182 St bet. Belmont Av and Croton Av","10457","Belmont Playground,New York, NY,10457",-73.8876637,40.8502451,"Bronx"
"365","Q172","Corona Plaza","Roosevelt Ave. bet. National St. and 104 St.","11368","Corona Plaza,New York, NY,11368",-73.8629274,40.7497372,"Queens"
"366","X263","Quarry Ballfields","E. 181 St., Oak Tree Pl. bet. Quarry Rd. and Hughes Ave.","10457","Quarry Ballfields,New York, NY,10457",-73.890971,40.8510258,"Bronx"
"367","X236","Mapes Pool","E 180 St bet. Prospect Av and Mapes Av","10460","Mapes Pool,New York, NY,10460",-73.8860366,40.8464698,"Bronx"
"368","B061","McLaughlin Park","Jay St., Bridge St. bet. Tillary St. and Cathedral Pl.","11201","McLaughlin Park,New York, NY,11201",-73.9859998,40.6965351,"Brooklyn"
"369","B210A","John Allen Payne Playground","3 Ave. bet. 64 St. and 65 St.","11220","John Allen Payne Playground,New York, NY,11220",-74.0237653,40.6398704,"Brooklyn"
"370","Q422","Seaside Playground","Rockaway Beach Blvd. bet. Beach 110 St. and Beach 109 St.","11694","Seaside Playground,New York, NY,11694",-73.8309199,40.5805942,"Queens"
"371","M285","Dr. Ronald E. McNair Playground","Lexington Ave. bet. E. 122 St. and 123 St.","10035","Dr. Ronald E. McNair Playground,New York, NY,10035",-73.9380972,40.8025008,"Manhattan"
"372","Q329","Pomonok Playground","Kissena Blvd., 155 St. bet. 65 Ave. and Melbourne Ave.","11367","Pomonok Playground,New York, NY,11367",-73.813934,40.736065,"Queens"
"373","Q320","Vleigh Playground","70 Rd., 71 Ave. bet. 150 St. and Kissena Blvd.","11367","Vleigh Playground,New York, NY,11367",-73.8159908,40.7298704,"Queens"
"374","X190","Tiffany Playground","Fox St to Tiffany St bet. E 167 St and E 165 St","10459","Tiffany Playground,New York, NY,10459",-73.8943702,40.8247736,"Bronx"
"375","B382B","Jacob's Ladder Playground","Clymer St. to Morton St. between Kent Ave. and Wythe Ave.","11211","Jacob's Ladder Playground,New York, NY,11211",-73.9670245,40.7047985,"Brooklyn"
"376","B393","Sheepshead Bay Piers","Emmons Ave. bet. Ocean Ave. and E. 26 St.","11235","Sheepshead Bay Piers,New York, NY,11235",-73.9459804,40.5839556,"Brooklyn"
"377","R066","North Shore Esplanade","Richmond Terr. from St Peter's Pl. to Stuyvesant Pl.","10301","North Shore Esplanade,New York, NY,10301",-74.0835263,40.6480797,"Staten Island"
"378","Q425","Yellowstone Park","Yellowstone Blvd. bet. 68 Ave. and 68 Rd.","11375","Yellowstone Park,New York, NY,11375",-73.8475791,40.7264024,"Queens"
"379","B049","Irving Square Park","Wilson Ave., Knickerbocker Ave., bet. Halsey St. and Weirfield St.","11207","Irving Square Park,New York, NY,11207",-73.909118,40.6925491,"Brooklyn"
"380","Q362","Playground Ninety","89 St., 90 St. bet. Northern Blvd. and Jackson Mill Rd.","11369","Playground Ninety,New York, NY,11369",-73.8784763,40.7573401,"Queens"
"381","Q348","Willow Lake Playground","72 Ave. bet. 112 St. and Grand Central Parkway","11375","Willow Lake Playground,New York, NY,11375",-73.8370303,40.72265,"Queens"
"382","R144","Sobel Court Park","Bowen St., Vanderbilt Ave., Targee St.","10304","Sobel Court Park,New York, NY,10304",-74.083803,40.6150229,"Staten Island"
"383","R035","De Matti Park","Tompkins Ave., bet. Chestnut St. and Shaughnessy La.","10305","De Matti Park,New York, NY,10305",-74.0742565,40.6145077,"Staten Island"
"384","Q085","Gorman Playground","30 Ave., 25 Ave. bet. 84 St. and 85 St.","11370","Gorman Playground,New York, NY,11370",-73.8841796,40.762406,"Queens"
"385","Q026","Park Of The Americas","41 Ave., 42 Ave. bet. 103 St. and 104 St.","11368","Park Of The Americas,New York, NY,11368",-73.8619406,40.7484612,"Queens"
"386","Q436","Athens Square","30 Ave. bet. 29 St. and 30 St.","11102","Athens Square,New York, NY,11102",-73.9222962,40.7678385,"Queens"
"387","B324","Jacob Joffe Fields","Ave. K between E. 58 St. and E. 59 St.","11234","Jacob Joffe Fields,New York, NY,11234",-73.9194158,40.6254792,"Brooklyn"
"388","Q141","Murray Playground","45 Ave., 45 Rd. bet. 11 St. and 21 St.","11101","Murray Playground,New York, NY,11101",-73.9482661,40.7471007,"Queens"
"389","Q004A","Ralph Demarco Park","Shore Blvd. bet. Ditmars Blvd. and 20 Ave.","11105","Ralph Demarco Park,New York, NY,11105",-73.9174816,40.7840851,"Queens"
"390","Q395","Steinway Playground","37 St., 38 St., bet. 20 Rd. and 20 Ave.","11105","Steinway Playground,New York, NY,11105",-73.9035497,40.7765515,"Queens"
"391","Q332","Woodtree Playground","20 Ave. bet. 37 St. and 38 St.","11105","Woodtree Playground,New York, NY,11105",-73.902454,40.7775077,"Queens"
"392","Q385","Ditmars Playground","Steinway St. bet. 23 Ave. and Ditmars Blvd.","11105","Ditmars Playground,New York, NY,11105",-73.9070944,40.7715877,"Queens"
"393","B130","Greenwood Playground","Ft Hamilton Pkwy., Prospect Ave., Greenwood Ave.","11218","Greenwood Playground,New York, NY,11218",-73.9765316,40.6504477,"Brooklyn"
"394","B169A","Brighton Playground","Brighton 2 St. bet. Brightwater Ct. and Boardwalk E.","11235","Brighton Playground,New York, NY,11235",-73.9652895,40.5751839,"Brooklyn"
"395","R012","White Park","High St., Lyman Ave., Bay St. and Summer St.","10305","White Park,New York, NY,10305",-74.0631505,40.6076007,"Staten Island"
"396","R117","Alice Austen Park","Edgewater St., Hylan Blvd., Abbott St.","10304, 10305","Alice Austen Park,New York, NY,10304, 10305",-74.0627694,40.6147573,"Staten Island"
"397","Q401","Lost Battalion Hall Recreation Center","Queens Blvd. bet. 62 Ave. and 62 Rd.","11374","Lost Battalion Hall Recreation Center,New York, NY,11374",-73.8656455,40.7316758,"Queens"
"398","Q098","Frank D. O'Connor Playground","Broadway and Woodside Ave. bet. 77 St. and 79 St.","11373","Frank D. O'Connor Playground,New York, NY,11373",-73.8865612,40.7442965,"Queens"
"399","M186","Col. Young Playground","W. 145 St. to W. 143 St., Lenox Ave., and Harlem River","10037","Col. Young Playground,New York, NY,10037",-73.9355258,40.8193351,"Manhattan"
"400","M200A","Anibal Aviles Playground","W. 108 St. to W. 109 St., Columbus Ave. and Amsterdam Ave.","10025","Anibal Aviles Playground,New York, NY,10025",-73.9628751,40.8012026,"Manhattan"
"401","RZ125","GREENSTREET","Hyatt And Bay",NA,"GREENSTREET,New York, NY,NA",-73.9555926,40.7336828,"Staten Island"
"402","R111","Lt. Lia Playground","Wall St. bet. St Marks Pl. and Belmont Pl.","10301","Lt. Lia Playground,New York, NY,10301",-74.0797889,40.6435031,"Staten Island"
"403","M244","Sol Bloom Playground","Columbus Ave., W. 91 St. To W. 92 St., Central Park W.","10025","Sol Bloom Playground,New York, NY,10025",-73.9688206,40.789658,"Manhattan"
"404","M229","Happy Warrior Playground","W. 97 St. and Amsterdam Ave.","10025","Happy Warrior Playground,New York, NY,10025",-73.9686898,40.7954101,"Manhattan"
"405","R037","Liotti Ikefugi Playground","Winter Ave., bet. Bismark Ave. and Westervelt Ave.","10301","Liotti Ikefugi Playground,New York, NY,10301",-74.0839339,40.6387553,"Staten Island"
"406","M009","Bennett Park","Ft Washington Av, W 183 St, Pinehurst Av","10033","Bennett Park,New York, NY,10033",-73.9380028,40.8528053,"Manhattan"
"407","Q211","Maple Playground","Kissena Blvd. bet. Maple Ave. and Franklin Ave.","11355","Maple Playground,New York, NY,11355",-73.8260082,40.7559225,"Queens"
"408","R067","Gen. Douglas MacArthur Park","Dongan Hills Ave. and Jefferson St.","10306","Gen. Douglas MacArthur Park,New York, NY,10306",-74.1001446,40.5865594,"Staten Island"
"409","M108T01","East River Esplanade","FDR Drive, E 90 St. To E 125 St.","10028, 10029, 10035, 10128","East River Esplanade,New York, NY,10028, 10029, 10035, 10128",-73.9363497,40.7904557,"Manhattan"
"410","B210I","Gonzalo Plasencia Playground","3 Ave. bet. 40 St. and 41 St.","11232","Gonzalo Plasencia Playground,New York, NY,11232",-74.008483,40.6528251,"Brooklyn"
"411","B529","Bushwick Inlet Park","Kent Ave. bet. Quay St. and N 9 St.","11211","Bushwick Inlet Park,New York, NY,11211",-73.9613074,40.7223295,"Brooklyn"
